LANDSAT 9               
1 49260U 21088A   24058.75070771  .00000636  00000+0  15115-3 0  9993
2 49260  98.1989 130.1873 0001388 100.1492 259.9863 14.57100469128614
